NORAD_CAT_ID,OBJECT_NAME,OBJECT_TYPE,EPOCH,MEAN_MOTION,ECCENTRICITY,INCLINATION,RA_OF_ASC_NODE,ARG_OF_PERICENTER,MEAN_ANOMALY,BSTAR,MEAN_MOTION_DOT,MEAN_MOTION_DDOT,TLE_LINE0,TLE_LINE1,TLE_LINE2,SEMIMAJOR_AXIS,PERIOD,APOGEE,PERIGEE,DECAYED
53002.0,STARLINK-4121,PAYLOAD,2024-03-16 05:04:46,15.08836691,0.00015,53.2162,101.9392,95.8598,264.2565,8.0821e-05,9.98e-06,0.0,0 STARLINK-4121,1 53002U 22076S   24076.21164410  .00000998  00000-0  80821-4 0  9994,2 53002  53.2162 101.9392 0001500  95.8598 264.2565 15.08836691 94095,6917.891,95.438,540.793,538.718,0.0
53002.0,STARLINK-4121,PAYLOAD,2024-03-16 08:15:32,15.08839132,0.0001484,53.2165,101.3444,95.8595,264.2566,3.0721e-05,2.01e-06,0.0,0 STARLINK-4121,1 53002U 22076S   24076.34412360  .00000201  00000-0  30721-4 0  9999,2 53002  53.2165 101.3444 0001484  95.8595 264.2566 15.08839132 93642,6917.883,95.438,540.775,538.721,0.0
53002.0,STARLINK-4121,PAYLOAD,2024-03-17 06:30:56,15.08836894,0.0001563,53.2169,97.1806,105.0143,255.1023,5.4367e-05,5.77e-06,0.0,0 STARLINK-4121,1 53002U 22076S   24077.27148514  .00000577  00000-0  54367-4 0  9997,2 53002  53.2169  97.1806 0001563 105.0143 255.1023 15.08836894 94258,6917.89,95.438,540.836,538.674,0.0
53002.0,STARLINK-4121,PAYLOAD,2024-03-18 07:57:06,15.08836448,0.000153,53.217,92.4234,98.8521,261.2644,8.0466e-05,9.93e-06,0.0,0 STARLINK-4121,1 53002U 22076S   24078.33132757  .00000993  00000-0  80466-4 0  9998,2 53002  53.2170  92.4234 0001530  98.8521 261.2644 15.08836448 94416,6917.891,95.438,540.815,538.698,0.0
53002.0,STARLINK-4121,PAYLOAD,2024-03-19 06:12:30,15.08838262,0.0001604,53.2175,88.2606,103.9006,256.2164,8.693e-05,1.096e-05,0.0,0 STARLINK-4121,1 53002U 22076S   24079.25868941  .00001096  00000-0  86930-4 0  9998,2 53002  53.2175  88.2606 0001604 103.9006 256.2164 15.08838262 94085,6917.886,95.438,540.86,538.641,0.0
53002.0,STARLINK-4121,PAYLOAD,2024-03-20 09:14:04,15.08841562,0.0001459,53.2172,83.2049,96.1615,263.9543,8.1905e-05,1.016e-05,0.0,0 STARLINK-4121,1 53002U 22076S   24080.38476918  .00001016  00000-0  81905-4 0  9992,2 53002  53.2172  83.2049 0001459  96.1615 263.9543 15.08841562 94729,6917.876,95.437,540.75,538.731,0.0
53002.0,STARLINK-4121,PAYLOAD,2024-03-21 09:04:51,15.08842913,0.0001492,53.2176,78.7442,99.2964,260.8197,8.1646e-05,1.012e-05,0.0,0 STARLINK-4121,1 53002U 22076S   24081.37836948  .00001012  00000-0  81646-4 0  9993,2 53002  53.2176  78.7442 0001492  99.2964 260.8197 15.08842913 94404,6917.871,95.437,540.769,538.704,0.0
53002.0,STARLINK-4121,PAYLOAD,2024-03-21 17:01:46,15.08849351,0.0001365,53.217,77.2554,99.8789,260.2357,0.00013615,1.88e-05,0.0,0 STARLINK-4121,1 53002U 22076S   24081.70956322  .00001880  00000-0  13615-3 0  9992,2 53002  53.2170  77.2554 0001365  99.8789 260.2357 15.08849351 94928,6917.852,95.437,540.661,538.773,0.0
53002.0,STARLINK-4121,PAYLOAD,2024-03-22 04:09:28,15.08841339,0.0001527,53.2177,75.1746,94.4484,265.6683,6.8521e-05,8.03e-06,0.0,0 STARLINK-4121,1 53002U 22076S   24082.17324976  .00000803  00000-0  68521-4 0  9999,2 53002  53.2177  75.1746 0001527  94.4484 265.6683 15.08841339 94994,6917.876,95.437,540.798,538.685,0.0
53002.0,STARLINK-4121,PAYLOAD,2024-03-22 08:55:37,15.08845236,0.0001822,53.2195,74.2794,92.1182,268.0019,9.0023e-05,1.145e-05,0.0,0 STARLINK-4121,1 53002U 22076S   24082.37196638  .00001145  00000-0  90023-4 0  9995,2 53002  53.2195  74.2794 0001822  92.1182 268.0019 15.08845236 94557,6917.864,95.437,540.99,538.469,0.0
53002.0,STARLINK-4121,PAYLOAD,2024-03-23 05:35:39,15.08831718,0.0001969,53.2188,70.413,128.9514,231.1654,3.8877e-05,3.3e-06,0.0,0 STARLINK-4121,1 53002U 22076S   24083.23309318  .00000330  00000-0  38877-4 0  9996,2 53002  53.2188  70.4130 0001969 128.9514 231.1654 15.08831718 95153,6917.906,95.438,541.133,538.409,0.0
53002.0,STARLINK-4121,PAYLOAD,2024-03-23 08:46:26,15.08811228,0.0001798,53.218,69.8188,118.3813,241.736,0.00021704,3.165e-05,0.0,0 STARLINK-4121,1 53002U 22076S   24083.36558264  .00003165  00000-0  21704-3 0  9995,2 53002  53.2180  69.8188 0001798 118.3813 241.7360 15.08811228 95172,6917.968,95.439,541.077,538.589,0.0
53002.0,STARLINK-4121,PAYLOAD,2024-03-24 05:26:25,15.0884618,0.0001489,53.2176,65.9574,92.7474,267.3688,0.00010825,1.436e-05,0.0,0 STARLINK-4121,1 53002U 22076S   24084.22668563  .00001436  00000-0  10825-3 0  9996,2 53002  53.2176  65.9574 0001489  92.7474 267.3688 15.08846180 95305,6917.861,95.437,540.757,538.696,0.0
53002.0,STARLINK-4121,PAYLOAD,2024-03-24 08:37:11,15.08856209,0.0001421,53.2176,65.3615,88.165,271.9504,9.3322e-05,1.198e-05,0.0,0 STARLINK-4121,1 53002U 22076S   24084.35915965  .00001198  00000-0  93322-4 0  9990,2 53002  53.2176  65.3615 0001421  88.1650 271.9504 15.08856209 95329,6917.831,95.437,540.679,538.713,0.0
53002.0,STARLINK-4121,PAYLOAD,2024-03-25 05:17:13,15.08832829,0.0001017,53.2178,61.4981,97.1309,262.9799,7.6143e-05,9.24e-06,0.0,0 STARLINK-4121,1 53002U 22076S   24085.22029533  .00000924  00000-0  76143-4 0  9992,2 53002  53.2178  61.4981 0001017  97.1309 262.9799 15.08832829 95458,6917.902,95.438,540.471,539.064,0.0
53002.0,STARLINK-4121,PAYLOAD,2024-03-25 14:49:31,15.08843079,0.0001209,53.2182,59.715,94.0135,266.0996,0.00012786,1.748e-05,0.0,0 STARLINK-4121,1 53002U 22076S   24085.61773057  .00001748  00000-0  12786-3 0  9999,2 53002  53.2182  59.7150 0001209  94.0135 266.0996 15.08843079 95517,6917.871,95.437,540.572,538.9,0.0
53002.0,STARLINK-4121,PAYLOAD,2024-03-26 05:08:02,15.08813572,0.0001174,53.2174,57.0398,92.0024,268.1103,-0.00039335,-6.538e-05,0.0,0 STARLINK-4121,1 53002U 22076S   24086.21391567 -.00006538  00000-0 -39335-3 0  9991,2 53002  53.2174  57.0398 0001174  92.0024 268.1103 15.08813572 95607,6917.961,95.439,540.638,539.014,0.0
53002.0,STARLINK-4121,PAYLOAD,2024-03-26 14:40:20,15.08822996,0.0001042,53.2175,55.2502,76.1644,283.9464,-0.00013436,-2.424e-05,0.0,0 STARLINK-4121,1 53002U 22076S   24086.61135282 -.00002424  00000-0 -13436-3 0  9999,2 53002  53.2175  55.2502 0001042  76.1644 283.9464 15.08822996 95199,6917.932,95.439,540.518,539.077,0.0
53002.0,STARLINK-4121,PAYLOAD,2024-03-27 04:58:48,15.08835799,0.0001125,53.2186,52.5804,112.134,247.9771,0.00033877,5.107e-05,0.0,0 STARLINK-4121,1 53002U 22076S   24087.20750513  .00005107  00000-0  33877-3 0  9995,2 53002  53.2186  52.5804 0001125 112.1340 247.9771 15.08835799 95750,6917.893,95.438,540.536,538.98,0.0
53002.0,STARLINK-4121,PAYLOAD,2024-03-27 14:31:05,15.08858306,9.85e-05,53.2184,50.7918,79.0982,281.0121,0.00032045,4.818e-05,0.0,0 STARLINK-4121,1 53002U 22076S   24087.60492838  .00004818  00000-0  32045-3 0  9996,2 53002  53.2184  50.7918 0000985  79.0982 281.0121 15.08858306 95342,6917.824,95.436,540.371,539.008,0.0
53002.0,STARLINK-4121,PAYLOAD,2024-03-28 04:49:36,15.08827859,0.0001229,53.2192,48.1151,72.0536,288.059,0.00021044,3.062e-05,0.0,0 STARLINK-4121,1 53002U 22076S   24088.20111806  .00003062  00000-0  21044-3 0  9993,2 53002  53.2192  48.1151 0001229  72.0536 288.0590 15.08827859 95909,6917.917,95.438,540.633,538.932,0.0
53002.0,STARLINK-4121,PAYLOAD,2024-03-28 14:21:54,15.08849813,0.0001279,53.2195,46.3295,67.5356,292.5772,0.00030235,4.529e-05,0.0,0 STARLINK-4121,1 53002U 22076S   24088.59854315  .00004529  00000-0  30235-3 0  9995,2 53002  53.2195  46.3295 0001279  67.5356 292.5772 15.08849813 95495,6917.85,95.437,540.6,538.831,0.0
53002.0,STARLINK-4121,PAYLOAD,2024-03-29 04:40:22,15.0884907,0.0001395,53.2185,43.6557,76.1119,284.0028,-9.1941e-05,-1.751e-05,0.0,0 STARLINK-4121,1 53002U 22076S   24089.19470280 -.00001751  00000-0 -91941-4 0  9995,2 53002  53.2185  43.6557 0001395  76.1119 284.0028 15.08849070 96055,6917.853,95.437,540.683,538.753,0.0
53002.0,STARLINK-4121,PAYLOAD,2024-03-29 14:12:40,15.08858878,0.0001149,53.2185,41.8716,86.5592,273.5532,9.4069e-05,1.21e-05,0.0,0 STARLINK-4121,1 53002U 22076S   24089.59213451  .00001210  00000-0  94069-4 0  9996,2 53002  53.2185  41.8716 0001149  86.5592 273.5532 15.08858878 95642,6917.823,95.436,540.483,538.893,0.0
53002.0,STARLINK-4121,PAYLOAD,2024-03-30 02:55:46,15.08837428,0.0001136,53.219,39.4917,99.8548,260.2573,7.2937e-05,8.73e-06,0.0,0 STARLINK-4121,1 53002U 22076S   24090.12206478  .00000873  00000-0  72937-4 0  9992,2 53002  53.2190  39.4917 0001136  99.8548 260.2573 15.08837428 96195,6917.888,95.438,540.539,538.967,0.0
53002.0,STARLINK-4121,PAYLOAD,2024-03-30 14:03:27,15.08848935,0.0001457,53.2187,37.4088,102.503,257.6125,9.995e-05,1.303e-05,0.0,0 STARLINK-4121,1 53002U 22076S   24090.58573754  .00001303  00000-0  99950-4 0  9999,2 53002  53.2187  37.4088 0001457 102.5030 257.6125 15.08848935 95795,6917.853,95.437,540.726,538.71,0.0
53002.0,STARLINK-4121,PAYLOAD,2024-03-30 20:25:01,15.08838102,0.000208,53.22,36.2223,85.7158,274.4071,6.3126e-05,7.17e-06,0.0,0 STARLINK-4121,1 53002U 22076S   24090.85070735  .00000717  00000-0  63126-4 0  9994,2 53002  53.2200  36.2223 0002080  85.7158 274.4071 15.08838102 95832,6917.886,95.438,541.19,538.312,0.0
53002.0,STARLINK-4121,PAYLOAD,2024-03-31 05:57:19,15.08842757,0.0001298,53.2182,34.4364,96.3977,263.7163,4.1005e-05,3.65e-06,0.0,0 STARLINK-4121,1 53002U 22076S   24091.24814311  .00000365  00000-0  41005-4 0  9995,2 53002  53.2182  34.4364 0001298  96.3977 263.7163 15.08842757 96367,6917.872,95.437,540.635,538.839,0.0
53002.0,STARLINK-4121,PAYLOAD,2024-03-31 20:15:48,15.08835969,0.0001528,53.2183,31.761,98.5666,261.55,9.4635e-05,1.218e-05,0.0,0 STARLINK-4121,1 53002U 22076S   24091.84430733  .00001218  00000-0  94635-4 0  9998,2 53002  53.2183  31.7610 0001528  98.5666 261.5500 15.08835969 95982,6917.893,95.438,540.815,538.701,0.0
53002.0,STARLINK-4121,PAYLOAD,2024-04-01 02:37:20,15.08834742,0.0001401,53.2187,30.5731,96.0794,264.0358,-3.5065e-06,-3.44e-06,0.0,0 STARLINK-4121,1 53002U 22076S   24092.10926960 -.00000344  00000-0 -35065-5 0  9994,2 53002  53.2187  30.5731 0001401  96.0794 264.0358 15.08834742 96496,6917.896,95.438,540.731,538.792,0.0
